#dP2023  8 16  0  0  0.00000000      96 __u+U IGS14 FIT  IAC
## 2275 259200.00000000   900.00000000 60172 0.0000000000000
+  118   C06C07C08C09C10C11C12C13C14C16C19C20C21C22C23C24C25
+        C26C27C28C29C30C32C33C34C35C36C37C38C39C40C41C42C43
+        C44C45C46E02E03E04E05E07E08E09E10E11E12E13E14E15E18
+        E19E21E24E25E26E27E30E31E33E34E36G01G02G03G04G05G06
+        G07G08G09G10G11G12G13G14G15G16G17G18G19G20G21G23G24
+        G25G26G27G28G29G30G31G32J02J03J04R01R02R03R04R05R07
+        R08R09R11R12R13R14R15R16R17R18R19R20R21R22R24R25  0
++         7  8  7  7  7  7  7  7  6  7  6  6  6  6  6  6  6
++         6  6  6  6  6  6  6  6  6  6  7  6  7  6  6  6  6
++         6  6  6  5  5  4  4  4  5  4  4  4  4  5  5  5  4
++         4  4  4  5  4  4  4  4  4  5  4  4  3  3  4  4  3
++         3  4  4  3  4  3  4  4  4  4  3  4  3  4  4  4  4
++         3  4  4  4  4  3  3  4  9  9  9  8  7  6  6  6  7
++         7  7  7  7  8  7  7  7  7  7  8  8  7  7  7  8  0
%c M  cc GPS ccc cccc cccc cccc cccc ccccc ccccc ccccc ccccc
%c cc cc ccc ccc cccc cccc cccc cccc ccccc ccccc ccccc ccccc
%f  1.2500000  1.025000000  0.00000000000  0.000000000000000
%f  0.0000000  0.000000000  0.00000000000  0.000000000000000
%i    0    0    0    0      0      0      0      0         0
%i    0    0    0    0      0      0      0      0         0
/* INFORMATION & ANALYSIS CENTER (IAC)            FINAL DATA
/* S/V CLOCKS ARE ALIGNED TO GNSS TIME                      
/* G:C1WC2W R:C1PC2P E:C1XC5X C:C2IC6I J:C1CC2S             
/* PCV:IGS20_2274 OL/AL:FES2004  NONE     YN ORB:CoN CLK:CoN
*  2023 08 16  7 30  0.00000000
PC06  -9420.024562  40540.663027   7667.666556    895.637440
PC07  -5825.803812  27342.547657 -31444.042899     62.331989
PC08 -19476.247804  26324.817677  26406.140207    387.699019
PC09  -5261.595874  42126.213585   -918.639956    286.330106
PC10   1589.973150  29361.002413 -29733.931000   -147.146406
PC11 -15142.033675 -11169.589650 -20553.376071    781.850500
PC12  -8016.441791 -25935.530251  -6473.917800    874.932367
PC13 -11883.571444  27170.871765  29979.724836    335.147120
PC14 -26321.644543  -9339.294989    733.608273    236.210284
PC16 -10990.463557  39529.322114  10627.387862    -37.712049
PC19  25970.360439   2656.991735  -9811.036469   -961.243065
PC20  23265.267618  13758.705644   6877.231018    357.818596
PC21  -6223.674010 -17495.134888 -20832.141710   -950.207242
PC22  13840.443676 -10602.664078 -21792.527515   -349.277052
PC23 -20458.787295  18841.814310  -2242.829989   -903.531809
PC24 -12402.276929 -10863.193434  22509.202912    289.179521
PC25 -23268.739290   6995.494783  13702.049005    190.492059
PC26   4279.710573 -20833.280360  18072.592370   -163.925670
PC27   2995.157669  27690.757278  -1790.832357    185.149792
PC28  -8376.234570  20918.167584 -16454.614380    138.487912
PC29  16108.081721   -569.642566  22773.399170    161.561155
PC30  13832.680217  19755.124854  14043.993720     -3.546783
PC32   6189.945264  17439.175032  20890.564974   -532.055429
PC33 -26044.742286  -2565.235860   9711.671469   -938.618889
PC34 -14360.082759 -18561.696642 -15102.116716    238.236901
PC35   7814.249434 -21013.930337  16585.678268    566.749668
PC36  23256.186088  -5794.581966 -14271.261249   -273.971997
PC37  -5614.872590  20949.124755 -17528.701916   -808.320289
PC38 -25279.883228  27709.697815  19098.130134     98.494741
PC39 -12195.578322  36971.570228  16531.701580     -4.338135
PC40  -9900.471515  21270.293790 -34992.286138    -33.073145
PC41 -14536.871522  10265.923533  21543.802297   -887.922181
PC42 -22505.317936 -14348.079315  -8160.728529   -576.341713
PC43 -16356.102509   -437.750672 -22615.585425     35.484506
PC44  -3926.872515 -27547.356955   1923.470665    201.612144
PC45  20213.670689 -19054.858828   2791.921248    -14.550567
PC46  13501.125734   9664.659919 -22427.947679    -76.919588
PE02   6493.493362  15920.761725 -24091.396660     55.918765
PE03  12459.001309  25659.189836   7876.402426    -46.444281
PE04 -21945.692543 -16872.810619  10493.642796   -190.475216
PE05  -4376.890925  19542.873065  21796.412812      9.462697
PE07  18777.912259  -1651.561620 -22816.188774    -67.737715
PE08  21835.823474  17198.780226 -10159.857346   -131.096021
PE09 -18760.746229   1412.094463  22856.412987   -122.167160
PE10 -17424.937446   1912.036906 -23860.396037   -556.472876
PE11 -18745.097844  13209.936775 -18734.053814   2734.727642
PE12 -13712.679726  -8691.447643 -24758.283058   -659.902672
PE13  18683.337136 -12547.524152  19225.698911    -19.442391
PE14   9150.182089 -14984.331300  18777.088452    312.696752
PE15  13446.200259   9065.994207  24761.721773    -45.496382
PE18 -18567.025214   7465.609385 -23487.832103    419.208551
PE19 -10457.775480 -25742.162321 -10202.337557  -1840.182164
PE21  14744.543217 -15791.813419  20238.356105   -546.945949
PE24 -28718.773825   6011.351537  -3846.486092   -268.521003
PE25 -15115.789499  15689.070854 -20026.311522     -0.329579
PE26  12565.998602 -26746.874914   1790.133891    194.213772
PE27  28537.961837  -6497.801102   4447.758382   -125.785914
PE30  25076.391638   6923.283647 -14131.900991   -421.923441
PE31 -25360.460809  -6536.378821  13808.991943     -2.789086
PE33     63.803266 -25385.998797 -15237.360342     -1.495269
PE34    463.844206  25057.530432  15727.144873    -61.808220
PE36 -12921.035130  26511.178170  -2527.253317   -101.772917
PG01  14358.685267 -21215.353825   5954.214366    168.421855
PG02  15831.294937 -16801.455813  13485.901625   -564.921705
PG03  17121.027970 -12518.591445 -16059.342942   -184.729519
PG04   6722.449779 -15507.936675 -20448.514863    127.101001
PG05 -26056.261246   5075.732345   1776.391845   -138.994819
PG06  -9365.931814 -12888.446727 -21172.282575    565.575678
PG07   3794.324392 -24497.322409   9308.486272     94.423478
PG08  14933.008927  -5158.958819  21325.076289   -137.427517
PG09  -2358.135024 -21393.607370 -15610.907652    -85.353338
PG10  14592.233111  11519.821913  19270.267395    -49.482937
PG11 -16746.517139   1543.732908 -20534.037082   -323.153577
PG12 -20777.463734   9944.071893 -13429.106666   -413.476530
PG13 -17408.939370  -4530.803570  19424.186135    560.707038
PG14 -10940.646598 -13670.263375  20038.265294    155.540788
PG15 -13873.505855   7808.768674  20812.067346     68.110304
PG16  26702.815844   1277.733138  -2295.496483   -467.580001
PG17 -13232.489554 -22933.412121   1492.870979    722.787787
PG18  -2868.939081  23830.474882  11179.336567   -384.227989
PG19 -16799.135985 -19579.332015  -7218.605021    358.329338
PG20 -24842.227604    124.061223  -9091.217575    416.973055
PG21  16349.741025 -13899.670883  15563.338041    150.647584
PG23    760.412658  14920.956990  21958.285128     55.709373
PG24 -14789.841755  18897.467271  10538.747041   -291.195971
PG25  -7412.937977  15523.431131 -20483.506272    462.436481
PG26  22838.326062   5672.133290 -12765.511154    232.741034
PG27  19463.856252   7532.853735  16410.904381    -22.873127
PG28   9112.356958  14785.910085 -20116.211047     75.703307
PG29    272.390989  21211.823632 -15967.080578   -607.852980
PG30  -3923.063901 -20481.865298  16420.727833   -496.047518
PG31  15167.966615   3867.418217 -21668.723677   -221.912373
PG32  16865.595626  20536.149167  -2088.113272   -541.436864
PJ02 -34297.847209  15622.522648 -14279.508955     -2.622218
PJ03 -21831.948365  30863.717876 -13964.523053     -1.128085
PJ04 -25480.840214  27924.222651  24486.243812     70.491327
PR01  -5049.615037   9760.041774  23016.464225     63.594636
PR02  12186.385175  16112.248597  15657.124890    -22.528294
PR03  22016.347894  12925.528218   -674.198682     83.403461
PR04  19352.877738   2993.678510 -16329.116645    198.886342
PR05   6375.883497  -8674.387495 -23117.936371    117.414257
PR07 -22145.128626 -12501.815754   1651.358997     62.542082
PR08 -19281.061378  -2580.623919  16535.866403    -72.137613
PR09   -196.153757 -12649.308703  22160.064155    136.966519
PR11 -22725.086548   8859.224323   7513.829623   -133.774553
PR12 -16560.395342  15601.557342 -11489.891932     30.228242
PR13  -2225.326096  13300.411851 -21658.795880    -38.207098
PR14  15811.749797   2126.723494 -19876.646018     25.085607
PR15  22891.953708  -9399.009706  -6144.264982     86.965611
PR16  16651.810369 -15638.591629  11327.179980     17.746929
PR17   8947.990765  12508.375495  20339.593579      9.265449
PR18  10391.565317  -5393.990189  22668.719297     97.013624
PR19   7718.350183 -19513.950115  14508.276477   -243.675210
PR20   -926.336386 -24810.590690  -5777.949647    -98.396506
PR21  -9046.123071 -11555.088601 -20876.897176    -30.749752
PR22 -10898.527966   6156.562547 -22202.755467    113.856589
PR24   2250.497230  24592.950563   6350.616650    -20.663204
PR25  -8623.207045 -13040.519276 -20161.534702     42.396949
EOF
